GOES-16
1 41866U 16071A   25131.86259584 -.00000137  00000-0  00000-0 0  9991
2 41866   0.0499 268.4555 0001326 201.2918 339.4184  1.00127295 31079
FENGYUN-4A
1 41882U 16077A   25131.90525410 -.00000342  00000-0  00000-0 0  9992
2 41882   1.2994  84.5404 0007376 165.1151  69.8541  1.00271446 30908
FOX-1B (AO-91)
1 43017U 17073E   25131.59467018  .00008155  00000-0  42381-3 0  9995
2 43017  97.5285   3.1046 0172696 265.3334  92.8151 15.04284109404855
CANX-2
1 32790U 08021H   25131.84911383  .00004617  00000-0  36118-3 0  9991
2 32790  97.8214 101.3763 0012120 310.1569  49.8593 15.01505585924509
AIST-2 (RS-43)
1 39133U 13015D   25132.19552413  .00006413  00000-0  29767-3 0  9990
2 39133  64.8690 122.5299 0030555 284.1658  75.6075 15.20486406663265
NANOSATC-BR1
1 40024U 14033Q   25131.93132524  .00013242  00000-0  66064-3 0  9999
2 40024  98.0902 127.8839 0006687 121.6199 238.5686 15.17645265592864
QB50P1
1 40025U 14033R   25131.92020994  .00007356  00000-0  45578-3 0  9992
2 40025  98.0812 112.9326 0011659 143.4776 216.7249 15.10035711592314
QB50P2
1 40032U 14033Y   25132.17997086  .00008244  00000-0  54013-3 0  9994
2 40032  98.0423 102.3324 0010771  95.1829 265.0627 15.07949132592614
PERSEUS-M2
1 40037U 14033AD  25132.16642276  .00002171  00000-0  21093-3 0  9991
2 40037  97.9547  71.3807 0012138 181.0912 179.0282 14.93627233591385
PERSEUS-M1
1 40039U 14033AF  25131.61632642  .00002305  00000-0  22377-3 0  9993
2 40039  97.9286  65.8751 0011949 181.6942 178.4239 14.93601181591166
POLYITAN-1
1 40042U 14033AJ  25131.69781575  .00015133  00000-0  74942-3 0  9993
2 40042  98.1023 119.9605 0012387  98.1079 262.1559 15.17822251592405
TIGRISAT
1 40043U 14033AK  25131.85637002  .00002092  00000-0  25949-3 0  9990
2 40043  97.7318 288.0687 0050338 310.9887  48.6978 14.82827021586109
UKUBE-1
1 40074U 14037F   25131.84845494  .00008469  00000-0  60185-3 0  9998
2 40074  98.3908  91.6597 0003431  80.5283 279.6329 15.04973195588023
DEORBITSAIL
1 40719U 15032E   25131.84827146  .00006168  00000-0  54804-3 0  9999
2 40719  97.6465 352.0998 0012725 120.3531 239.8950 14.96420390531089
HORYU-IV
1 41340U 16012D   25131.89079795  .00022396  00000-0  62206-3 0  9999
2 41340  30.9975 324.6929 0006959 108.2981 251.8421 15.35634005508378
D-SAT
1 42794U 17036AF  25131.87800164  .00007863  00000-0  44080-3 0  9992
2 42794  97.5133 110.3208 0096204 106.0818 255.1030 15.09715190430164
CORVUS-BC2
1 42846U 17042X   25131.87963630  .00003589  00000-0  27207-3 0  9998
2 42846  97.3734 305.8541 0015239  49.8472 310.4086 15.02757781426725
CORVUS-BC1
1 42847U 17042Y   25131.93527368  .00003288  00000-0  24818-3 0  9991
2 42847  97.3764 306.4200 0013652  29.5598 330.6397 15.02997507426753
APRIZESAT-5 
1 37792U 11044E   25132.22088737  .00001071  00000-0  14637-3 0  9991
2 37792  98.2324  49.8039 0052552 211.9405 147.8616 14.79898248739600
APRIZESAT-6
1 37793U 11044F   25131.67358297  .00000914  00000-0  13894-3 0  9990
2 37793  98.2636  28.7187 0042551 290.3489  98.7586 14.76030505737900
APRIZESAT-7
1 39416U 13066A   25131.84854530  .00001669  00000-0  17633-3 0  9993
2 39416  97.7193  87.7051 0038541 100.7622 259.7938 14.90029955621431
APRIZESAT-8
1 39425U 13066K   25131.82587510  .00001144  00000-0  13326-3 0  9995
2 39425  97.7745  81.5767 0047424 164.4109 195.8580 14.86388916620024
BUGSAT-1 (TITA)
1 40014U 14033E   25132.19553984  .00006623  00000-0  40026-3 0  9999
2 40014  98.0755 197.2202 0032614 105.0558 255.4283 15.10596572595210
SAUDISAT-4
1 40016U 14033G   25132.16233074  .00000811  00000-0  11573-3 0  9991
2 40016  97.7041 288.7943 0044222 299.4701  60.2102 14.78690652586815
TABLETSAT-AURORA
1 40017U 14033H   25132.18293800  .00007708  00000-0  46316-3 0  9992
2 40017  98.0752 178.3419 0014580 137.9803 222.2547 15.11103737594536
APRIZESAT-9
1 40018U 14033J   25131.96780621  .00000757  00000-0  12014-3 0  9995
2 40018  97.8497 271.5969 0068136  51.2038 309.5229 14.73434739584597
APRIZESAT-10
1 40019U 14033K   25131.94454650  .00000891  00000-0  14868-3 0  9992
2 40019  97.9127 264.3472 0081072 114.8550 246.1113 14.70190115583464
AISAT
1 40054U 14034B   25131.74513636  .00009298  00000-0  76207-3 0  9995
2 40054  98.2926  12.2506 0011614 114.7283 245.5148 14.99458374586873
COSMOS-2407 [+]
1 28380U 04028A   25131.90253975  .00000076  00000-0  62725-4 0  9996
2 28380  82.9633  12.0040 0037986 295.7925  74.6400 13.76288869 44684
COSMOS-2414 [+]
1 28521U 05002A   25132.12599472  .00000071  00000-0  46184-4 0  9992
2 28521  82.9504 346.9827 0040966  34.7478 325.6348 13.87872035 28527
COSMOS-2463 [+]
1 36519U 10017A   25132.12398059  .00000073  00000-0  63497-4 0  9996
2 36519  82.9619 184.3915 0036731 160.8404 217.3303 13.71626320753044
NOAA-15
1 25338U 98030A   25132.13304691  .00000267  00000-0  12742-3 0  9995
2 25338  98.5370 157.9465 0011502  84.2604 275.9888 14.26963201404341
NOAA-18
1 28654U 05018A   25132.16822155  .00000248  00000-0  15454-3 0  9998
2 28654  98.8420 211.9635 0013835 205.7258 154.3228 14.13595848 29738
NOAA-19
1 33591U 09005A   25132.17007661  .00000240  00000-0  15186-3 0  9996
2 33591  98.9984 196.7132 0014840  85.3813 274.9053 14.13359803838099
SARAL
1 39086U 13009A   25131.90685956  .00000121  00000-0  60379-4 0  9992
2 39086  98.5538 318.6270 0002855  55.5362 304.6091 14.32696944638142
LAPAN-A3
1 41603U 16040E   25132.17714509  .00004060  00000-0  14355-3 0  9993
2 41603  97.1371 137.9030 0011525  21.1212 339.0503 15.29663329493443
BIROS
1 41604U 16040F   25132.08141845  .00032574  00000-0  39676-3 0  9995
2 41604  97.0881 160.9708 0003034 273.0066  87.0844 15.60448405495056
METOP-A
1 29499U 06044A   25131.92258573  .00001386  00000-0  17208-3 0  9999
2 29499  98.3296 221.8810 0178265 266.8960 183.8468 14.73890444966306
METEOR M1
1 35865U 09049A   25131.88932560  .00000117  00000-0  71356-4 0  9997
2 35865  98.6837  93.6289 0003071  49.7816 310.3630 14.23014415812319
METOP-B
1 38771U 12049A   25132.17153148  .00000162  00000-0  93616-4 0  9993
2 38771  98.5789 187.1843 0002032  91.6710 268.4701 14.21493095656280
METEOR M2
1 40069U 14037A   25132.24984332  .00000155  00000-0  90184-4 0  9999
2 40069  98.4669 118.3510 0006831 116.2151 243.9730 14.21287930562364
CSSWE
1 38761U 12048D   25131.89333297  .00012234  00000-0  42740-3 0  9998
2 38761  64.6649 349.5609 0114784 281.9821  76.8458 15.23787226 54880
MCUBED-2
1 39469U 13072H   25131.40961513  .00007874  00000-0  41060-3 0  9995
2 39469 120.4939 255.5980 0168242 303.6261  54.8854 15.05748283 57075
IPEX
1 39471U 13072K   25131.91451399  .00004851  00000-0  30099-3 0  9992
2 39471 120.4668 224.2087 0181086 295.2781  62.9620 14.99327543 54883
FOX-1A (AO-85)
1 40967U 15058D   25132.23612423  .00002673  00000-0  24200-3 0  9990
2 40967  64.7755  82.1026 0164918 204.5996 154.7186 14.87860508 53855
OOREOS
1 37224U 10062C   25131.78974105  .00003082  00000-0  31467-3 0  9997
2 37224  71.9711 267.8390 0013237 115.1807 245.0736 14.91321527 56755
STARS (KUKAI)
1 33498U 09002G   25132.21322805  .00005222  00000-0  52539-3 0  9992
2 33498  98.1250  60.5087 0010617  57.5600 302.6643 14.91619037879041
YUBELEINY-2 (RS-40)
1 38735U 12041C   25131.91757195  .00000035  00000-0  18274-3 0  9993
2 38735  82.4750 324.9024 0016805 220.7552 139.2271 12.42631280580008
AIST-1
1 39492U 13078C   25132.17225153  .00002081  00000-0  19051-3 0  9995
2 39492  82.4138 298.8314 0017469 175.8075 184.3296 14.94394623617653
VELOX-1
1 40057U 14034E   25132.16141950  .00004954  00000-0  48373-3 0  9998
2 40057  98.2976  10.1606 0008978 141.6893 218.4964 14.92875313586676
DX1
1 40071U 14037C   25132.18379197  .00002024  00000-0  22676-3 0  9999
2 40071  98.3440  66.5044 0008529 128.7223 231.4755 14.88053153586516
AAUSAT CUBESAT 2
1 32788U 08021F   25131.94274640  .00859474  33493-3  20397-2 0  9992
2 32788  97.5889 130.3744 0009063 157.2173 202.9506 15.96690575928985
COSMOS-2491 (RS-46) [i]
1 39497U 13076E   25132.17614297  .00000011  00000-0  64130-5 0  9990
2 39497  82.4875  58.3658 0011828 245.0129 114.9723 12.43488632516163
COSMOS-2499 (RS-47) [i]
1 39765U 14028E   25132.18523412  .00000035  00000-0  92477-4 0  9995
2 39765  82.4489 163.0290 0230743 222.8389 135.4535 12.82891136513827
TRANSIT 5B-5
1   965U 64083D   25132.11304164  .00000092  00000-0  11575-3 0  9997
2   965  90.0616 200.1459 0041725  13.8382  47.4046 13.56964017989787
EUTELSAT 1-F4 (ECS 4)
1 18351U 87078B   25132.11021635  .00000018  00000-0  00000+0 0  9998
2 18351  14.1152 344.9404 0010683  39.1063 323.6134  0.98686601122788
BISONSAT
1 40968U 15058E   25131.85380413  .00003324  00000-0  27671-3 0  9998
2 40968  64.7760  71.6153 0154941 203.7694 155.6212 14.91590077 56711
DTUSAT-2
1 40030U 14033W   25131.95907223  .00006284  00000-0  41387-3 0  9993
2 40030  98.0533 102.4069 0010297 146.3213 213.8670 15.07869377592082
ELEKTRO-L2
1 41105U 15074A   25131.66363270 -.00000101  00000-0  00000-0 0  9996
2 41105   5.6811  75.4631 0001609 243.0898 135.5763  1.00272084 34483
DOVE-3
1 39429U 13066P   25131.89637298  .00002700  00000-0  38161-3 0  9998
2 39429  97.7154   6.8658 0118285 243.1544 115.7532 14.73243313612074
FORTE
1 24920U 97047A   25131.88819980  .00000234  00000-0  11785-3 0  9991
2 24920  69.9532 200.2566 0019459 107.9369 252.3876 14.27695275441401
DMSP 5D-2 F15/USA-147
1 25991U 99067A   25131.94396132  .00000182  00000-0  11253-3 0  9992
2 25991  99.0406 159.4584 0010866  66.8496  54.9232 14.17367227313802
CASSIOPE-1
1 39265U 13055A   25131.88399549  .00021510 -39063-6  34522-3 0  9992
2 39265  80.9426 182.5366 0394787 305.9870  50.5333 14.96758248607081
D-STAR ONE PHOENIX
1 43188U 18014J   25131.70526923  .00005012  00000-0  29920-3 0  9997
2 43188  97.5668  35.0256 0008659 330.8417  29.2329 15.11546168398018
S-NET D
1 43186U 18014G   25131.70479106  .00004975  00000-0  29710-3 0  9999
2 43186  97.5655  34.9085 0008202 336.0162  24.0685 15.11540573398011
